GLOBALSTAR M094         
1 39074U 13005C   25188.84374060 -.00000126  00000+0 -12518-3 0  9998
2 39074  51.9950 119.2224 0000575  14.0481 346.0402 12.62262756574981
GLOBALSTAR M096         
1 39075U 13005D   25189.09442951 -.00000109  00000+0 -29702-4 0  9997
2 39075  52.0049 166.9897 0000327 331.6100  28.4749 12.62265587574282
GLOBALSTAR M078         
1 39076U 13005E   25189.22643976 -.00000021  00000+0  46072-3 0  9993
2 39076  51.9858 251.0724 0000900 201.3781 158.7048 12.62259757572783
GLOBALSTAR M095         
1 39077U 13005F   25188.85671143 -.00000072  00000+0  17507-3 0  9996
2 39077  51.9788 249.3834 0000434 215.3921 144.6916 12.62268031572740
GLOBALSTAR M087         
1 52888U 22064A   25188.88163449 -.00000098  00000+0  32184-4 0  9991
2 52888  52.0008  30.7553 0001108  94.2247 265.8747 12.63725617147651
